NORAD_CAT_ID,OBJECT_NAME,OBJECT_TYPE,EPOCH,MEAN_MOTION,ECCENTRICITY,INCLINATION,RA_OF_ASC_NODE,ARG_OF_PERICENTER,MEAN_ANOMALY,BSTAR,MEAN_MOTION_DOT,MEAN_MOTION_DDOT,TLE_LINE0,TLE_LINE1,TLE_LINE2,SEMIMAJOR_AXIS,PERIOD,APOGEE,PERIGEE,DECAYED
55791.0,STARLINK-5807,PAYLOAD,2024-06-09 14:09:21,14.98326134,0.0002826,70.0004,13.3905,271.4684,88.6151,-3.2442e-05,-4.8e-06,0.0,0 STARLINK-5807,1 55791U 23028BC  24161.58983525 -.00000480  00000-0 -32442-4 0  9994,2 55791  70.0004  13.3905 0002826 271.4684  88.6151 14.98326134 71447,6950.205,96.107,574.034,570.106,0.0
55791.0,STARLINK-5807,PAYLOAD,2024-06-09 20:33:54,14.98326023,0.0002925,69.9998,12.717,268.7709,91.3115,-3.5921e-05,-5.22e-06,0.0,0 STARLINK-5807,1 55791U 23028BC  24161.85687560 -.00000522  00000-0 -35921-4 0  9996,2 55791  69.9998  12.7170 0002925 268.7709  91.3115 14.98326023 71471,6950.205,96.107,574.103,570.037,0.0
55791.0,STARLINK-5807,PAYLOAD,2024-06-09 22:10:02,14.98326651,0.0002903,69.9998,12.5487,267.3606,92.7221,-2.3576e-05,-3.74e-06,0.0,0 STARLINK-5807,1 55791U 23028BC  24161.92363494 -.00000374  00000-0 -23576-4 0  9999,2 55791  69.9998  12.5487 0002903 267.3606  92.7221 14.98326651 71499,6950.203,96.107,574.086,570.051,0.0
55791.0,STARLINK-5807,PAYLOAD,2024-06-10 14:11:22,14.98323187,0.0003112,69.9994,10.8651,271.3481,88.7321,0.00010736,1.188e-05,0.0,0 STARLINK-5807,1 55791U 23028BC  24162.59123404  .00001188  00000-0  10736-3 0  9993,2 55791  69.9994  10.8651 0003112 271.3481  88.7321 14.98323187 71596,6950.214,96.107,574.242,569.916,0.0
55791.0,STARLINK-5807,PAYLOAD,2024-06-10 20:35:54,14.98333076,0.0003116,69.9998,10.1914,271.7232,88.357,1.5309e-05,9e-07,0.0,0 STARLINK-5807,1 55791U 23028BC  24162.85827032  .00000090  00000-0  15309-4 0  9993,2 55791  69.9998  10.1914 0003116 271.7232  88.3570 14.98333076 71621,6950.183,96.107,574.214,569.883,0.0
55791.0,STARLINK-5807,PAYLOAD,2024-06-10 22:12:02,14.98333783,0.0003103,69.9998,10.023,271.6487,88.4316,2.3556e-05,1.88e-06,0.0,0 STARLINK-5807,1 55791U 23028BC  24162.92502951  .00000188  00000-0  23556-4 0  9992,2 55791  69.9998  10.0230 0003103 271.6487  88.4316 14.98333783 71644,6950.181,96.107,574.203,569.89,0.0
55791.0,STARLINK-5807,PAYLOAD,2024-06-11 14:13:23,14.98330209,0.000304,70.0,8.3395,271.8945,88.1865,4.1898e-05,4.07e-06,0.0,0 STARLINK-5807,1 55791U 23028BC  24163.59263055  .00000407  00000-0  41898-4 0  9998,2 55791  70.0000   8.3395 0003040 271.8945  88.1865 14.98330209 71741,6950.192,96.107,574.17,569.944,0.0
55791.0,STARLINK-5807,PAYLOAD,2024-06-11 23:50:11,14.98334835,0.0003027,70.0,7.3295,271.9437,88.1375,8.5479e-05,9.27e-06,0.0,0 STARLINK-5807,1 55791U 23028BC  24163.99318570  .00000927  00000-0  85479-4 0  9995,2 55791  70.0000   7.3295 0003027 271.9437  88.1375 14.98334835 71791,6950.178,96.107,574.147,569.939,0.0
55791.0,STARLINK-5807,PAYLOAD,2024-06-12 06:14:43,14.98329613,0.0003006,70.0,6.6561,272.0176,88.0639,2.0207e-05,1.48e-06,0.0,0 STARLINK-5807,1 55791U 23028BC  24164.26023019  .00000148  00000-0  20207-4 0  9990,2 55791  70.0000   6.6561 0003006 272.0176  88.0639 14.98329613 71833,6950.194,96.107,574.148,569.97,0.0
55791.0,STARLINK-5807,PAYLOAD,2024-06-12 22:16:04,14.98326719,0.0002877,70.0004,4.9735,270.6375,89.4455,-6.9158e-05,-9.18e-06,0.0,0 STARLINK-5807,1 55791U 23028BC  24164.92783526 -.00000918  00000-0 -69158-4 0  9994,2 55791  70.0004   4.9735 0002877 270.6375  89.4455 14.98326719 71948,6950.203,96.107,574.068,570.068,0.0
55791.0,STARLINK-5807,PAYLOAD,2024-06-13 14:17:25,14.98334477,0.0002896,70.0003,3.2905,266.9492,93.1336,-1.8369e-05,-3.12e-06,0.0,0 STARLINK-5807,1 55791U 23028BC  24165.59542832 -.00000312  00000-0 -18369-4 0  9997,2 55791  70.0003   3.2905 0002896 266.9492  93.1336 14.98334477 72049,6950.179,96.107,574.057,570.031,0.0
55791.0,STARLINK-5807,PAYLOAD,2024-06-13 22:18:05,14.98334649,0.00029,70.0003,2.4489,266.7668,93.316,-1.2003e-05,-2.36e-06,0.0,0 STARLINK-5807,1 55791U 23028BC  24165.92922713 -.00000236  00000-0 -12003-4 0  9998,2 55791  70.0003   2.4489 0002900 266.7668  93.3160 14.98334649 72099,6950.179,96.107,574.059,570.028,0.0
55791.0,STARLINK-5807,PAYLOAD,2024-06-14 14:19:26,14.98326527,0.0002942,70.0002,0.765,263.5106,96.5718,4.0606e-05,3.92e-06,0.0,0 STARLINK-5807,1 55791U 23028BC  24166.59682986  .00000392  00000-0  40606-4 0  9998,2 55791  70.0002   0.7650 0002942 263.5106  96.5718 14.98326527 72198,6950.204,96.107,574.113,570.024,0.0
55791.0,STARLINK-5807,PAYLOAD,2024-06-14 20:43:58,14.98326923,0.0003007,70.0001,0.0911,268.3142,91.7673,3.1152e-05,2.79e-06,0.0,0 STARLINK-5807,1 55791U 23028BC  24166.86387052  .00000279  00000-0  31152-4 0  9994,2 55791  70.0001   0.0911 0003007 268.3142  91.7673 14.98326923 72238,6950.202,96.107,574.157,569.977,0.0
55791.0,STARLINK-5807,PAYLOAD,2024-06-15 14:21:26,14.98331766,0.000301,70.0001,358.2395,269.1132,90.9682,-2.2277e-05,-3.59e-06,0.0,0 STARLINK-5807,1 55791U 23028BC  24167.59822913 -.00000359  00000-0 -22277-4 0  9994,2 55791  70.0001 358.2395 0003010 269.1132  90.9682 14.98331766 72348,6950.187,96.107,574.144,569.96,0.0
55791.0,STARLINK-5807,PAYLOAD,2024-06-15 22:22:07,14.98334241,0.0003011,70.0,357.3974,268.196,91.8854,7.8327e-06,0.0,0.0,0 STARLINK-5807,1 55791U 23028BC  24167.93202588  .00000000  00000-0  78327-5 0  9991,2 55791  70.0000 357.3974 0003011 268.1960  91.8854 14.98334241 72396,6950.18,96.107,574.137,569.952,0.0
55791.0,STARLINK-5807,PAYLOAD,2024-06-16 14:23:27,14.98330378,0.0003029,69.9999,355.7136,268.0678,92.0134,7.0073e-06,-9e-08,0.0,0 STARLINK-5807,1 55791U 23028BC  24168.59962719 -.00000009  00000-0  70073-5 0  9993,2 55791  69.9999 355.7136 0003029 268.0678  92.0134 14.98330378 72498,6950.192,96.107,574.162,569.952,0.0
55791.0,STARLINK-5807,PAYLOAD,2024-06-16 22:24:08,14.98331245,0.0003037,70.0,354.8721,268.3138,91.7673,1.595e-05,9.7e-07,0.0,0 STARLINK-5807,1 55791U 23028BC  24168.93342617  .00000097  00000-0  15950-4 0  9998,2 55791  70.0000 354.8721 0003037 268.3138  91.7673 14.98331245 72541,6950.189,96.107,574.165,569.943,0.0
55791.0,STARLINK-5807,PAYLOAD,2024-06-17 22:26:09,14.98331471,0.0003087,69.9999,352.3478,269.644,90.4365,-2.8542e-05,-4.34e-06,0.0,0 STARLINK-5807,1 55791U 23028BC  24169.93482693 -.00000434  00000-0 -28542-4 0  9996,2 55791  69.9999 352.3478 0003087 269.6440  90.4365 14.98331471 72693,6950.188,96.107,574.199,569.908,0.0
55791.0,STARLINK-5807,PAYLOAD,2024-06-18 14:27:29,14.98330942,0.0003015,70.0001,350.6646,271.4817,88.5997,1.1286e-05,4.2e-07,0.0,0 STARLINK-5807,1 55791U 23028BC  24170.60242580  .00000042  00000-0  11286-4 0  9991,2 55791  70.0001 350.6646 0003015 271.4817  88.5997 14.98330942 72790,6950.19,96.107,574.15,569.959,0.0
55791.0,STARLINK-5807,PAYLOAD,2024-06-18 20:52:01,14.98332704,0.0002976,70.0002,349.9915,270.4416,89.6402,3.1482e-05,2.83e-06,0.0,0 STARLINK-5807,1 55791U 23028BC  24170.86946374  .00000283  00000-0  31482-4 0  9998,2 55791  70.0002 349.9915 0002976 270.4416  89.6402 14.98332704 72836,6950.185,96.107,574.118,569.981,0.0
55791.0,STARLINK-5807,PAYLOAD,2024-06-19 12:53:22,14.9832805,0.0002957,70.0002,348.3082,270.9389,89.1431,-1.2869e-05,-2.47e-06,0.0,0 STARLINK-5807,1 55791U 23028BC  24171.53706771 -.00000247  00000-0 -12869-4 0  9998,2 55791  70.0002 348.3082 0002957 270.9389  89.1431 14.98328050 72923,6950.199,96.107,574.119,570.009,0.0
55791.0,STARLINK-5807,PAYLOAD,2024-06-19 14:29:30,14.98326891,0.0002951,70.0003,348.14,270.2354,89.8467,-2.293e-05,-3.67e-06,0.0,0 STARLINK-5807,1 55791U 23028BC  24171.60382865 -.00000367  00000-0 -22930-4 0  9993,2 55791  70.0003 348.1400 0002951 270.2354  89.8467 14.98326891 72944,6950.203,96.107,574.119,570.017,0.0
55791.0,STARLINK-5807,PAYLOAD,2024-06-19 22:30:10,14.98329391,0.0002936,70.0004,347.2984,270.0605,90.0217,8.4639e-06,8e-08,0.0,0 STARLINK-5807,1 55791U 23028BC  24171.93762646  .00000008  00000-0  84639-5 0  9993,2 55791  70.0004 347.2984 0002936 270.0605  90.0217 14.98329391 72992,6950.195,96.107,574.1,570.019,0.0
55791.0,STARLINK-5807,PAYLOAD,2024-06-20 14:31:31,14.98330411,0.000289,70.0005,345.6152,269.226,90.8568,-2.5021e-05,-3.92e-06,0.0,0 STARLINK-5807,1 55791U 23028BC  24172.60522680 -.00000392  00000-0 -25021-4 0  9997,2 55791  70.0005 345.6152 0002890 269.2260  90.8568 14.98330411 73092,6950.192,96.107,574.065,570.048,0.0
55791.0,STARLINK-5807,PAYLOAD,2024-06-20 20:56:03,14.9832991,0.0002909,70.0005,344.9419,269.1502,90.9324,-2.732e-05,-4.19e-06,0.0,0 STARLINK-5807,1 55791U 23028BC  24172.87226713 -.00000419  00000-0 -27320-4 0  9998,2 55791  70.0005 344.9419 0002909 269.1502  90.9324 14.98329910 73126,6950.193,96.107,574.08,570.036,0.0
55791.0,STARLINK-5807,PAYLOAD,2024-06-21 14:33:32,14.98328421,0.0003065,70.0002,343.09,269.2213,90.8595,6.7989e-07,-8.5e-07,0.0,0 STARLINK-5807,1 55791U 23028BC  24173.60662701 -.00000085  00000-0  67989-6 0  9996,2 55791  70.0002 343.0900 0003065 269.2213  90.8595 14.98328421 73240,6950.198,96.107,574.193,569.933,0.0
55791.0,STARLINK-5807,PAYLOAD,2024-06-21 20:58:04,14.98331311,0.0003073,70.0003,342.4167,269.2838,90.7969,3.08e-05,2.75e-06,0.0,0 STARLINK-5807,1 55791U 23028BC  24173.87366429  .00000275  00000-0  30800-4 0  9993,2 55791  70.0003 342.4167 0003073 269.2838  90.7969 14.98331311 73270,6950.189,96.107,574.19,569.918,0.0
55791.0,STARLINK-5807,PAYLOAD,2024-06-22 14:35:33,14.98326391,0.0003086,70.0003,340.5651,269.3868,90.6937,3.053e-06,-5.7e-07,0.0,0 STARLINK-5807,1 55791U 23028BC  24174.60802837 -.00000057  00000-0  30530-5 0  9993,2 55791  70.0003 340.5651 0003086 269.3868  90.6937 14.98326391 73394,6950.204,96.107,574.214,569.924,0.0
55791.0,STARLINK-5807,PAYLOAD,2024-06-22 21:00:05,14.98330241,0.0003093,70.0002,339.8914,268.9857,91.0948,1.2253e-05,5.3e-07,0.0,0 STARLINK-5807,1 55791U 23028BC  24174.87506577  .00000053  00000-0  12253-4 0  9990,2 55791  70.0002 339.8914 0003093 268.9857  91.0948 14.98330241 73427,6950.192,96.107,574.207,569.907,0.0
